MEAN_MOTION;ECCENTRICITY;INCLINATION;RA_OF_ASC_NODE;ARG_OF_PERICENTER;MEAN_ANOMALY;BSTAR;MEAN_MOTION_DOT;MEAN_MOTION_DDOT;TYPE
14.88428173;0.020486;86.4009;34.6292;231.7484;126.5155;3.6442E-5;5.37E-6;0;Iridium
14.88428746;0.0204906;86.401;34.384;229.8158;128.4976;3.6171E-5;5.34E-6;0;Iridium
14.88428746;0.0204906;86.401;34.384;229.8158;128.4976;3.6171E-5;5.34E-6;0;Iridium
14.88429321;0.0204944;86.4011;34.1696;228.1255;130.2329;3.648E-5;5.38E-6;0;Iridium
14.88430315;0.0204987;86.4012;33.9245;226.1972;132.2147;4.0509E-5;5.94E-6;0;Iridium
14.88430315;0.0204987;86.4012;33.9245;226.1972;132.2147;4.0509E-5;5.94E-6;0;Iridium
14.88430611;0.0205029;86.4013;33.71;224.5073;133.953;3.7639E-5;5.54E-6;0;Iridium
14.88431137;0.020507;86.4013;33.4956;222.8208;135.6893;3.7514E-5;5.53E-6;0;Iridium
14.88431813;0.0205119;86.4014;33.2812;221.1306;137.4307;3.8756E-5;5.7E-6;0;Iridium
14.88432377;0.0205182;86.4015;33.0361;219.2007;139.421;3.8268E-5;5.64E-6;0;Iridium
14.88432377;0.0205182;86.4015;33.0361;219.2007;139.421;3.8268E-5;5.64E-6;0;Iridium
14.88432377;0.0205182;86.4015;33.0361;219.2007;139.421;3.8268E-5;5.64E-6;0;Iridium
14.88433773;0.0205343;86.4017;32.3929;214.1373;144.651;3.635E-5;5.38E-6;0;Iridium
14.88434255;0.0205406;86.4018;32.1478;212.2098;146.645;3.5573E-5;5.28E-6;0;Iridium
14.88434683;0.0205463;86.4018;31.9028;210.2825;148.6402;3.3633E-5;5.02E-6;0;Iridium
14.88435177;0.0205518;86.4019;31.6883;208.5985;150.3848;3.4485E-5;5.14E-6;0;Iridium
14.88435177;0.0205518;86.4019;31.6883;208.5985;150.3848;3.4485E-5;5.14E-6;0;Iridium
14.88435791;0.0205578;86.402;31.4433;206.6727;152.3811;3.5069E-5;5.22E-6;0;Iridium
14.88436115;0.0205713;86.4021;30.9838;203.063;156.1264;2.7349E-5;4.16E-6;0;Iridium
14.88436563;0.0205796;86.4022;30.7082;200.8972;158.3756;2.7368E-5;4.17E-6;0;Iridium
14.88436594;0.0205798;86.4022;30.6776;200.6563;158.6258;2.7266E-5;4.15E-6;0;Iridium
14.88436837;0.0205834;86.4022;30.5551;199.6941;159.6257;2.7776E-5;4.23E-6;0;Iridium
14.88437713;0.0205919;86.4023;30.2488;197.2865;162.1282;3.3608E-5;5.03E-6;0;Iridium
14.88437997;0.0205968;86.4024;30.0958;196.0854;163.3772;3.3722E-5;5.05E-6;0;Iridium
14.88438456;0.0206058;86.4025;29.7895;193.6829;165.8764;3.3489E-5;5.02E-6;0;Iridium
14.88438456;0.0206058;86.4025;29.7895;193.6829;165.8764;3.3489E-5;5.02E-6;0;Iridium
14.88438744;0.0206116;86.4025;29.6058;192.243;167.3749;3.2777E-5;4.93E-6;0;Iridium
14.88439321;0.020619;86.4025;29.3608;190.3221;169.3745;3.445E-5;5.16E-6;0;Iridium
14.88439363;0.0206195;86.4025;29.3302;190.0818;169.6247;3.4403E-5;5.16E-6;0;Iridium
14.88439584;0.0206243;86.4026;29.1771;188.8826;170.8733;3.309E-5;4.98E-6;0;Iridium
14.88440363;0.0206336;86.4026;28.8709;186.4847;173.3706;3.5573E-5;5.32E-6;0;Iridium
14.88440646;0.0206389;86.4027;28.7178;185.2865;174.6187;3.533E-5;5.29E-6;0;Iridium
14.88441177;0.0206478;86.4028;28.4423;183.1299;176.8654;3.5205E-5;5.28E-6;0;Iridium
14.88441155;0.0206486;86.4028;28.4116;182.8902;177.1152;3.4493E-5;5.18E-6;0;Iridium
14.88441366;0.0206541;86.4028;28.2585;181.6928;178.3627;3.3483E-5;5.04E-6;0;Iridium
14.88441857;0.0206635;86.4029;27.983;179.5365;180.6095;3.384E-5;5.1E-6;0;Iridium
14.88441926;0.0206643;86.4029;27.9524;179.2969;180.8592;3.4051E-5;5.13E-6;0;Iridium
14.88442221;0.0206699;86.4029;27.7993;178.1006;182.1056;3.4033E-5;5.13E-6;0;Iridium
14.88442574;0.0206749;86.403;27.6463;176.9042;183.3523;3.5164E-5;5.28E-6;0;Iridium
14.88443127;0.0206833;86.403;27.3708;174.7498;185.597;3.4435E-5;5.19E-6;0;Iridium
14.88443502;0.0206901;86.4031;27.1565;173.0765;187.3403;3.3616E-5;5.08E-6;0;Iridium
14.88443502;0.0206901;86.4031;27.1565;173.0765;187.3403;3.3616E-5;5.08E-6;0;Iridium
14.88444079;0.0206973;86.4032;26.9116;171.1629;189.3336;3.3982E-5;5.13E-6;0;Iridium
14.88444418;0.0207036;86.4032;26.6973;169.4907;191.0752;3.2624E-5;4.95E-6;0;Iridium
14.88444418;0.0207036;86.4032;26.6973;169.4907;191.0752;3.2624E-5;4.95E-6;0;Iridium
14.88444692;0.0207118;86.4033;26.4524;167.5787;193.0661;2.9043E-5;4.45E-6;0;Iridium
14.88446015;0.0207202;86.4034;26.1769;165.4302;195.3026;3.7767E-5;5.67E-6;0;Iridium
14.88445989;0.0207212;86.4034;26.1463;165.1911;195.5514;3.6786E-5;5.53E-6;0;Iridium
14.88446271;0.0207269;86.4035;25.9932;163.9969;196.7942;3.6236E-5;5.46E-6;0;Iridium
14.8844719;0.0207371;86.4035;25.6871;161.6098;199.2774;4.0268E-5;6.02E-6;0;Iridium
14.88447796;0.0207425;86.4036;25.534;160.4178;200.5169;4.3185E-5;6.43E-6;0;Iridium
14.88448736;0.0207506;86.4036;25.2585;158.2703;202.7492;4.7408E-5;7.02E-6;0;Iridium
14.88448814;0.0207514;86.4036;25.2279;158.0313;202.9975;4.7498E-5;7.03E-6;0;Iridium
14.88449352;0.0207567;86.4036;25.0748;156.8404;204.2349;4.8861E-5;7.22E-6;0;Iridium
14.8845022;0.0207646;86.4036;24.7993;154.693;206.4648;5.0278E-5;7.42E-6;0;Iridium
14.88450295;0.0207656;86.4036;24.7687;154.4547;206.7122;5.0125E-5;7.4E-6;0;Iridium
14.88450589;0.02077;86.4036;24.6157;153.2639;207.948;4.8138E-5;7.13E-6;0;Iridium
14.8845086;0.0207724;86.4036;24.5545;152.7878;208.4421;4.9352E-5;7.3E-6;0;Iridium
14.88452084;0.0207834;86.4036;24.1565;149.691;211.6532;4.8844E-5;7.23E-6;0;Iridium
14.88452432;0.0207871;86.4037;24.0341;148.7397;212.639;4.788E-5;7.1E-6;0;Iridium
14.88452882;0.0207913;86.4036;23.8811;147.5489;213.8724;4.7628E-5;7.07E-6;0;Iridium
14.88453398;0.0207957;86.4037;23.728;146.3603;215.103;4.784E-5;7.1E-6;0;Iridium
14.88454843;0.0208032;86.4037;23.4526;144.2207;217.3166;5.4657E-5;8.05E-6;0;Iridium
14.88455644;0.0208092;86.4037;23.2383;142.5577;219.0358;5.5855E-5;8.22E-6;0;Iridium
14.88456438;0.0208131;86.4037;23.0853;141.3704;220.2625;5.9738E-5;8.76E-6;0;Iridium
14.88458707;0.0208245;86.4037;22.6262;137.8072;223.9397;6.7694E-5;9.88E-6;0;Iridium
14.88458707;0.0208245;86.4037;22.6262;137.8072;223.9397;6.7694E-5;9.88E-6;0;Iridium
14.88459491;0.0208309;86.4037;22.3814;135.9074;225.8977;6.5682E-5;9.6E-6;0;Iridium
14.8846056;0.0208364;86.4037;22.1365;134.008;227.8535;6.6686E-5;9.75E-6;0;Iridium
14.8846056;0.0208364;86.4037;22.1365;134.008;227.8535;6.6686E-5;9.75E-6;0;Iridium
14.88461443;0.0208412;86.4037;21.9223;132.3457;229.5634;6.6001E-5;9.65E-6;0;Iridium
14.88463129;0.020851;86.4037;21.4632;128.7865;233.2193;6.2708E-5;9.2E-6;0;Iridium
14.88464278;0.02086;86.4037;21.0653;125.7059;236.3778;5.7573E-5;8.49E-6;0;Iridium
14.88464475;0.0208615;86.4038;21.0041;125.2321;236.8631;5.6945E-5;8.4E-6;0;Iridium
14.88465102;0.0208653;86.4038;20.8204;123.8111;238.3177;5.6586E-5;8.35E-6;0;Iridium
14.88466174;0.0208695;86.4037;20.5756;121.9149;240.2566;5.8665E-5;8.65E-6;0;Iridium
14.88466621;0.0208744;86.4037;20.3307;120.0208;242.1911;5.3313E-5;7.9E-6;0;Iridium
14.88466621;0.0208744;86.4037;20.3307;120.0208;242.1911;5.3313E-5;7.9E-6;0;Iridium
14.88467248;0.0208791;86.4037;20.1165;118.3644;243.881;5.2134E-5;7.74E-6;0;Iridium
14.88469439;0.0208877;86.4037;19.6267;114.5753;247.7398;5.6207E-5;8.31E-6;0;Iridium
14.88470945;0.0208935;86.4037;19.1982;111.2605;251.1074;5.4979E-5;8.14E-6;0;Iridium
14.88471565;0.0208955;86.4037;18.9839;109.6037;252.7877;5.3623E-5;7.95E-6;0;Iridium
14.88471565;0.0208955;86.4037;18.9839;109.6037;252.7877;5.3623E-5;7.95E-6;0;Iridium
14.88472362;0.0208984;86.4037;18.739;107.7104;254.7054;5.3382E-5;7.92E-6;0;Iridium
14.88473336;0.0209007;86.4037;18.5248;106.0559;256.3793;5.6651E-5;8.38E-6;0;Iridium
14.88473336;0.0209007;86.4037;18.5248;106.0559;256.3793;5.6651E-5;8.38E-6;0;Iridium
14.88474061;0.0209035;86.4036;18.2799;104.1646;258.2903;5.6623E-5;8.38E-6;0;Iridium
14.88475046;0.0209062;86.4036;18.0657;102.5113;259.9588;6.0497E-5;8.92E-6;0;Iridium
14.88475046;0.0209062;86.4036;18.0657;102.5113;259.9588;6.0497E-5;8.92E-6;0;Iridium
14.88475663;0.0209089;86.4035;17.8208;100.6226;261.8623;5.9108E-5;8.73E-6;0;Iridium
14.88476682;0.0209104;86.4035;17.5759;98.7291;263.7679;6.2032E-5;9.14E-6;0;Iridium
14.8847714;0.0209113;86.4034;17.4229;97.5451;264.9582;6.1003E-5;8.99E-6;0;Iridium
14.88477257;0.0209114;86.4034;17.3923;97.3088;265.1957;6.1044E-5;9.0E-6;0;Iridium
14.88478158;0.020912;86.4034;17.178;95.6531;266.858;6.2593E-5;9.22E-6;0;Iridium
14.88478158;0.020912;86.4034;17.178;95.6531;266.858;6.2593E-5;9.22E-6;0;Iridium
14.88478941;0.020913;86.4033;16.9331;93.7589;268.7576;6.1036E-5;9.0E-6;0;Iridium
14.88480612;0.0209126;86.4033;16.7188;92.1031;270.4156;7.0603E-5;1.034E-5;0;Iridium
14.88480646;0.0209131;86.4032;16.5352;90.6838;271.8354;6.3739E-5;9.38E-6;0;Iridium
14.88481713;0.0209129;86.4032;16.2903;88.7933;273.7241;6.528E-5;9.59E-6;0;Iridium
14.88482795;0.0209126;86.4032;16.0454;86.9012;275.6119;6.7028E-5;9.84E-6;0;Iridium
14.88483241;0.020912;86.4032;15.8311;85.2476;277.2595;6.4045E-5;9.42E-6;0;Iridium
14.88484041;0.0209118;86.4031;15.5862;83.357;279.1409;6.3681E-5;9.37E-6;0;Iridium
14.88484064;0.0209119;86.4031;15.5556;83.122;279.3746;6.2981E-5;9.27E-6;0;Iridium
14.88484823;0.0209116;86.4031;15.3413;81.4684;281.0177;6.3458E-5;9.34E-6;0;Iridium
14.88485142;0.0209114;86.4031;15.0964;79.5807;282.8911;5.5838E-5;8.27E-6;0;Iridium
14.88486871;0.0209099;86.403;14.8821;77.9236;284.5334;6.7036E-5;9.84E-6;0;Iridium
14.88486871;0.0209099;86.403;14.8821;77.9236;284.5334;6.7036E-5;9.84E-6;0;Iridium
14.88487658;0.0209085;86.403;14.6372;76.0322;286.4056;6.4757E-5;9.52E-6;0;Iridium
14.88488608;0.0209066;86.403;14.4229;74.3747;288.0442;6.529E-5;9.59E-6;0;Iridium
14.88489088;0.0209052;86.403;14.2392;72.9563;289.4448;6.2265E-5;9.16E-6;0;Iridium
14.88489902;0.0209027;86.403;14.0249;71.3009;291.0778;6.1652E-5;9.08E-6;0;Iridium
14.88490833;0.0208998;86.403;13.78;69.408;292.9427;6.2291E-5;9.16E-6;0;Iridium
14.88491692;0.0208968;86.4029;13.5657;67.7534;294.5708;6.3112E-5;9.28E-6;0;Iridium
14.88492081;0.0208966;86.4029;13.535;67.5163;294.804;6.7009E-5;9.82E-6;0;Iridium
14.88492884;0.0208935;86.4028;13.3207;65.8627;296.4292;6.7703E-5;9.92E-6;0;Iridium
14.88494602;0.0208898;86.4028;13.1064;64.2086;298.053;7.8522E-5;1.143E-5;0;Iridium
14.88495286;0.0208861;86.4027;12.8615;62.3175;299.9073;7.5747E-5;1.104E-5;0;Iridium
14.88495859;0.0208827;86.4026;12.6471;60.659;301.5317;7.2929E-5;1.064E-5;0;Iridium
